SIRION PATHFINDER-2     
1 43759U 18099B   26183.44289806  .00005009  00000+0  27406-3 0  9991
2 43759  97.4240 232.1382 0007319 240.1372 119.9133 15.14680073414939
CORVUS BC4              
1 43767U 18099K   26182.08100218  .00005142  00000+0  29796-3 0  9990
2 43767  97.4054 224.6547 0006930 321.1885  38.8848 15.12603535414508
M2 PATHFINDER           
1 45727U 20037E   26183.47482691  .00003477  00000+0  25081-3 0  9997
2 45727  97.8146  14.8778 0012858 100.9984 259.2689 15.04746846327796
NETSAT-4                
1 46504U 20068U   26182.96506679  .00021218  00000+0  46129-3 0  9990
2 46504  97.8597 192.3974 0003392 253.0481 107.0394 15.44359065318054
NETSAT-3                
1 46505U 20068V   26183.50132369  .00019788  00000+0  44731-3 0  9999
2 46505  97.8649 191.1749 0002888 279.7665  80.3255 15.43213992318043
NETSAT-1                
1 46506U 20068W   26183.26102793  .00013631  00000+0  40391-3 0  9990
2 46506  97.8745 185.0671 0003139 337.8079  22.3027 15.34987582317610
NETSAT-2                
1 46507U 20068X   26183.50164694  .00024138  00000+0  48478-3 0  9994
2 46507  97.8610 192.9295 0001407 305.0329  55.0787 15.46666067318108
GREENCUBE (IO-117)      
1 53109U 22080E   26181.72466670 -.00000003  00000+0  00000+0 0  9998
2 53109  70.1437 293.5372 0008958 286.6703  73.2973  6.42583253 92937
SITRO-AIS 5 (KATYS)     
1 57176U 23091L   26183.57397433  .00012651  00000+0  43966-3 0  9997
2 57176  97.5050 247.6223 0011950  55.1491 305.0872 15.29812501166698
SITRO-AIS 6 (CHIRKIN)   
1 57192U 23091AC  26183.58868798  .00010861  00000+0  42123-3 0  9998
2 57192  97.5057 246.6741 0012400  58.4190 301.8257 15.26230429166635
SITRO-AIS 8 (ANOKHIN)   
1 57193U 23091AD  26183.62910110  .00014763  00000+0  47089-3 0  9991
2 57193  97.5047 249.3303 0010799  51.1088 309.1116 15.32559350166813
SITRO-AIS 7 (FARTUSHNIY)
1 57194U 23091AE  26183.59501613  .00010652  00000+0  41718-3 0  9998
2 57194  97.5053 246.4973 0012313  59.4298 300.8153 15.25911503166622
SITRO-AIS 10 (BURDAEV)  
1 57199U 23091AK  26183.59493562  .00020617  00000+0  53160-3 0  9992
2 57199  97.5074 254.5105 0006082  30.7760 329.3841 15.39197922167132
SITRO-AIS 9 (SHCHUKIN)  
1 57201U 23091AM  26183.62630777  .00020136  00000+0  52781-3 0  9995
2 57201  97.5070 254.2604 0006340  30.7380 329.4235 15.38695447167129
SITRO-AIS 12 (SMIRENNIY)
1 57204U 23091AQ  26183.61399065  .00020917  00000+0  54298-3 0  9991
2 57204  97.5084 254.7246 0005824  24.7382 335.4141 15.38989697167143
SITRO-AIS 11 (SHEFFER)  
1 57208U 23091AU  26183.62310364  .00020990  00000+0  53724-3 0  9995
2 57208  97.5082 254.9903 0005755  24.7632 335.3888 15.39422625167161
SITRO-AIS 25            
1 59066U 24039R   26183.65163176  .00003593  00000+0  28192-3 0  9993
2 59066  95.3898 245.7196 0142280 273.9761  84.5211 14.93587718127033
SITRO-AIS 26            
1 59067U 24039S   26183.52111272  .00003710  00000+0  29239-3 0  9994
2 59067  95.3900 245.5243 0142608 275.0537  83.4424 14.93381517127007
SITRO-AIS 27            
1 59068U 24039T   26183.62101738  .00002557  00000+0  20063-3 0  9996
2 59068  95.3902 245.8722 0141774 273.2586  85.2429 14.93802424127046
SITRO-AIS 28            
1 59071U 24039U   26183.59811872  .00003401  00000+0  26572-3 0  9993
2 59071  95.3904 245.9044 0141522 273.1734  85.3309 14.93838050127047
GRBBETA                 
1 60237U 24128C   26183.28521787  .00004329  00000+0  29929-3 0  9996
2 60237  61.9886 163.2905 0038690 137.9215 222.4861 15.06732068108549
OOV-CUBE (TUBSAT-30)    
1 60240U 24128F   26183.55879411  .00002304  00000+0  18357-3 0  9994
2 60240  61.9934 171.9698 0042694 137.1235 223.3199 15.02830240108423
ROBUSTA-3A (MEDITERRAN*)
1 60243U 24128J   26183.41414843  .00007696  00000+0  45227-3 0  9991
2 60243  61.9853 154.3896 0039659 131.0687 229.3846 15.11831241108722
LASARSAT                
1 62391U 24247Q   26183.28195665  .00037231  00000+0  71734-3 0  9992
2 62391  44.9721 177.3345 0006613  68.9888 291.1709 15.47268601 85656
CROCUBE                 
1 62394U 24247T   26183.26077660  .00043599  00000+0  78103-3 0  9998
2 62394  44.9691 174.5342 0006478  75.1846 284.9762 15.49290769 85688
FORESAIL-1 PRIME        
1 66778U 25276DS  26183.47954005  .00006062  00000+0  29418-3 0  9990
2 66778  97.4197 256.4713 0003666  71.9706 288.1928 15.18839394 32725
KNACKSAT-2              
1 67683U 98067XZ  26183.27043350  .00047788  00000+0  55339-3 0  9995
2 67683  51.6255 218.5343 0008370 281.3126  78.6927 15.61304103 22639
