OBJECT_NAME,OBJECT_ID,EPOCH,MEAN_MOTION,ECCENTRICITY,INCLINATION,RA_OF_ASC_NODE,ARG_OF_PERICENTER,MEAN_ANOMALY,EPHEMERIS_TYPE,CLASSIFICATION_TYPE,NORAD_CAT_ID,ELEMENT_SET_NO,REV_AT_EPOCH,BSTAR,MEAN_MOTION_DOT,MEAN_MOTION_DDOT
SIRION PATHFINDER-2,2018-099B,2026-07-02T10:37:46.392384,15.14680073,.00073191,97.4240,232.1382,240.1372,119.9133,0,U,43759,999,41493,.27406307E-3,.5009E-4,0
CORVUS BC4,2018-099K,2026-07-01T01:56:38.588352,15.12603535,.00069308,97.4054,224.6547,321.1885,38.8848,0,U,43767,999,41450,.29796216E-3,.5142E-4,0
M2 PATHFINDER,2020-037E,2026-07-02T11:23:45.045024,15.04746846,.00128587,97.8146,14.8778,100.9984,259.2689,0,U,45727,999,32779,.25081493E-3,.3477E-4,0
NETSAT-4,2020-068U,2026-07-01T23:09:41.770656,15.44359065,.00033922,97.8597,192.3974,253.0481,107.0394,0,U,46504,999,31805,.46128639E-3,.21218E-3,0
NETSAT-3,2020-068V,2026-07-02T12:01:54.366816,15.43213992,.00028884,97.8649,191.1749,279.7665,80.3255,0,U,46505,999,31804,.44731107E-3,.19788E-3,0
NETSAT-1,2020-068W,2026-07-02T06:15:52.813152,15.34987582,.00031393,97.8745,185.0671,337.8079,22.3027,0,U,46506,999,31761,.40390729E-3,.13631E-3,0
NETSAT-2,2020-068X,2026-07-02T12:02:22.295616,15.46666067,.00014079,97.8610,192.9295,305.0329,55.0787,0,U,46507,999,31810,.48478192E-3,.24138E-3,0
GREENCUBE (IO-117),2022-080E,2026-06-30T17:23:31.202880,6.42583253,.00089588,70.1437,293.5372,286.6703,73.2973,0,U,53109,999,9293,0,-.3E-7,0
SITRO-AIS 5 (KATYS),2023-091L,2026-07-02T13:46:31.382112,15.29812501,.00119503,97.5050,247.6223,55.1491,305.0872,0,U,57176,999,16669,.43965858E-3,.12651E-3,0
SITRO-AIS 6 (CHIRKIN),2023-091AC,2026-07-02T14:07:42.641472,15.26230429,.00124001,97.5057,246.6741,58.4190,301.8257,0,U,57192,999,16663,.42123065E-3,.10861E-3,0
SITRO-AIS 8 (ANOKHIN),2023-091AD,2026-07-02T15:05:54.335040,15.32559350,.00107999,97.5047,249.3303,51.1088,309.1116,0,U,57193,999,16681,.47088523E-3,.14763E-3,0
SITRO-AIS 7 (FARTUSHNIY),2023-091AE,2026-07-02T14:16:49.393632,15.25911503,.0012313,97.5053,246.4973,59.4298,300.8153,0,U,57194,999,16662,.4171791E-3,.10652E-3,0
SITRO-AIS 10 (BURDAEV),2023-091AK,2026-07-02T14:16:42.437568,15.39197922,.00060823,97.5074,254.5105,30.7760,329.3841,0,U,57199,999,16713,.53159601E-3,.20617E-3,0
SITRO-AIS 9 (SHCHUKIN),2023-091AM,2026-07-02T15:01:52.991328,15.38695447,.00063406,97.5070,254.2604,30.7380,329.4235,0,U,57201,999,16712,.5278127E-3,.20136E-3,0
SITRO-AIS 12 (SMIRENNIY),2023-091AQ,2026-07-02T14:44:08.792160,15.38989697,.00058242,97.5084,254.7246,24.7382,335.4141,0,U,57204,999,16714,.54298256E-3,.20917E-3,0
SITRO-AIS 11 (SHEFFER),2023-091AU,2026-07-02T14:57:16.154496,15.39422625,.00057551,97.5082,254.9903,24.7632,335.3888,0,U,57208,999,16716,.53723749E-3,.2099E-3,0
SITRO-AIS 25,2024-039R,2026-07-02T15:38:20.984064,14.93587718,.01422808,95.3898,245.7196,273.9761,84.5211,0,U,59066,999,12703,.28192311E-3,.3593E-4,0
SITRO-AIS 26,2024-039S,2026-07-02T12:30:24.139008,14.93381517,.01426087,95.3900,245.5243,275.0537,83.4424,0,U,59067,999,12700,.29238597E-3,.371E-4,0
SITRO-AIS 27,2024-039T,2026-07-02T14:54:15.901632,14.93802424,.01417744,95.3902,245.8722,273.2586,85.2429,0,U,59068,999,12704,.20062599E-3,.2557E-4,0
SITRO-AIS 28,2024-039U,2026-07-02T14:21:17.457408,14.93838050,.01415221,95.3904,245.9044,273.1734,85.3309,0,U,59071,999,12704,.26571724E-3,.3401E-4,0
GRBBETA,2024-128C,2026-07-02T06:50:42.823968,15.06732068,.00386902,61.9886,163.2905,137.9215,222.4861,0,U,60237,999,10854,.29929411E-3,.4329E-4,0
OOV-CUBE (TUBSAT-30),2024-128F,2026-07-02T13:24:39.811104,15.02830240,.00426943,61.9934,171.9698,137.1235,223.3199,0,U,60240,999,10842,.18357434E-3,.2304E-4,0
ROBUSTA-3A (MEDITERRANEE),2024-128J,2026-07-02T09:56:22.424352,15.11831241,.00396593,61.9853,154.3896,131.0687,229.3846,0,U,60243,999,10872,.45226834E-3,.7696E-4,0
LASARSAT,2024-247Q,2026-07-02T06:46:01.054560,15.47268601,.00066135,44.9721,177.3345,68.9888,291.1709,0,U,62391,999,8565,.71733541E-3,.37231E-3,0
CROCUBE,2024-247T,2026-07-02T06:15:31.098240,15.49290769,.00064788,44.9691,174.5342,75.1846,284.9762,0,U,62394,999,8568,.78102848E-3,.43599E-3,0
FORESAIL-1 PRIME,2025-276DS,2026-07-02T11:30:32.260320,15.18839394,.00036663,97.4197,256.4713,71.9706,288.1928,0,U,66778,999,3272,.29418388E-3,.6062E-4,0
KNACKSAT-2,1998-067XZ,2026-07-02T06:29:25.454400,15.61304103,.00083709,51.6255,218.5343,281.3126,78.6927,0,U,67683,999,2263,.55338795E-3,.47788E-3,0
